*******************************************************************************
JPL/HORIZONS                 30 Urania (A854 OA)           2020-Jun-20 07:55:44
Rec #:      30 (+COV) Soln.date: 2020-May-20_00:56:46   # obs: 3435 (1860-2020)
 
IAU76/J2000 helio. ecliptic osc. elements (au, days, deg., period=Julian yrs):
 
  EPOCH=  2452755.5 ! 2003-Apr-26.00 (TDB)         Residual RMS= .31342
   EC= .1271924106194413   QR= 2.064675394336145   TP= 2453173.707005789
   OM= 307.9334427000084   W=  86.19608835340621   IN= 2.09847881030196
   A= 2.365556188393673    MA= 246.7089829925669   ADIST= 2.666436982451202
   PER= 3.63838            N= .270896978           ANGMOM= .02624257
   DAN= 2.30781            DDN= 2.34709            L= 34.1269858
   B= 2.0938537            MOID= 1.07085001        TP= 2004-Jun-17.2070057890
 
Asteroid physical parameters (km, seconds, rotational period in hours):
   GM= n.a.                RAD= 46.3935            ROTPER= 13.686
   H= 7.5                  G= .150                 B-V= .873
                           ALBEDO= .192            STYP= Sl
 
ASTEROID comments: 
1: soln ref.= JPL#110, OCC=0
2: source=ORB
*******************************************************************************
 
 
*******************************************************************************
Ephemeris / WWW_USER Sat Jun 20 07:55:44 2020 Pasadena, USA      / Horizons
*******************************************************************************
Target body name: 30 Urania (A854 OA)             {source: JPL#110}
Center body name: Solar System Barycenter (0)     {source: DE431}
Center-site name: BODY CENTER
*******************************************************************************
Start time      : A.D. 1969-Jun-28 00:00:00.0000 TDB
Stop  time      : A.D. 2071-May-04 00:00:00.0000 TDB
Step-size       : 7200 minutes
*******************************************************************************
Center geodetic : 0.00000000,0.00000000,0.0000000 {E-lon(deg),Lat(deg),Alt(km)}
Center cylindric: 0.00000000,0.00000000,0.0000000 {E-lon(deg),Dxy(km),Dz(km)}
Center radii    : (undefined)                                                  
Small perturbers: Yes                             {source: SB431-N16}
Output units    : AU-D
Output type     : GEOMETRIC cartesian states
Output format   : 2 (position and velocity)
Reference frame : Ecliptic of J2000.0
*******************************************************************************
Initial IAU76/J2000 heliocentric ecliptic osculating elements (au, days, deg.):
  EPOCH=  2452755.5 ! 2003-Apr-26.00 (TDB)         Residual RMS= .31342        
   EC= .1271924106194413   QR= 2.064675394336145   TP= 2453173.707005789       
   OM= 307.9334427000084   W=  86.19608835340621   IN= 2.09847881030196        
  Equivalent ICRF heliocentric equatorial cartesian coordinates (au, au/d):
   X=-7.183496012674295E-02  Y=-2.281909050879422E+00  Z=-1.053278490600668E+00
  VX= 1.046198341679884E-02 VY= 6.589015224013279E-04 VZ= 6.362724080896224E-04
Asteroid physical parameters (km, seconds, rotational period in hours):        
   GM= n.a.                RAD= 46.3935            ROTPER= 13.686              
   H= 7.5                  G= .150                 B-V= .873                   
                           ALBEDO= .192            STYP= Sl                    
*******************************************************************************
            JDTDB,            Calendar Date (TDB),        delta-T,                      X,                      Y,                      Z,                     VX,                     VY,                     VZ,
******************************************************************************************************************************************************************************************************************
$$SOE
2443900.500000000, A.D. 1979-Jan-27 00:00:00.0000,      50.184667,  1.469772629209391E+00,  1.458782638516519E+00,  7.514232097915642E-02, -8.763185249217617E-03,  9.165922297587810E-03, -4.467464594163591E-05,
2443905.500000000, A.D. 1979-Feb-01 00:00:00.0000,      50.184797,  1.425352661276794E+00,  1.503996714578671E+00,  7.488758683278320E-02, -9.003483719803028E-03,  8.918538929649117E-03, -5.720760462354963E-05,
2443910.500000000, A.D. 1979-Feb-06 00:00:00.0000,      50.184920,  1.379751172042615E+00,  1.547956599073752E+00,  7.457037068968098E-02, -9.235754706617572E-03,  8.664298641317210E-03, -6.966511730924099E-05,
2443915.500000000, A.D. 1979-Feb-11 00:00:00.0000,      50.185034,  1.333008871382446E+00,  1.590628809780374E+00,  7.419108447899503E-02, -9.459771940380965E-03,  8.403523914841716E-03, -8.203334768680909E-05,
2443920.500000000, A.D. 1979-Feb-16 00:00:00.0000,      50.185140,  1.285167559460333E+00,  1.631981498972339E+00,  7.375020863120917E-02, -9.675325643681589E-03,  8.136545892071519E-03, -9.429873745400223E-05,
2443925.500000000, A.D. 1979-Feb-21 00:00:00.0000,      50.185238,  1.236270043305789E+00,  1.671984494091080E+00,  7.324829060087469E-02, -9.882222903051624E-03,  7.863703321303525E-03, -1.064480408813509E-04,
2443930.500000000, A.D. 1979-Feb-26 00:00:00.0000,      50.185329,  1.186360051732162E+00,  1.710609333114535E+00,  7.268594322153185E-02, -1.008028796015824E-02,  7.585341490201747E-03, -1.184683573557301E-04,
2443935.500000000, A.D. 1979-Mar-03 00:00:00.0000,      50.185409,  1.135482149003104E+00,  1.747829294569393E+00,  7.206384290299143E-02, -1.026936242137311E-02,  7.301811151093137E-03, -1.303471619086631E-04,
2443940.500000000, A.D. 1979-Mar-08 00:00:00.0000,      50.185478,  1.083681647652134E+00,  1.783619422160085E+00,  7.138272768086266E-02, -1.044930538763154E-02,  7.013467443133250E-03, -1.420723337649913E-04,
2443945.500000000, A.D. 1979-Mar-13 00:00:00.0000,      50.185534,  1.031004520842837E+00,  1.817956544015150E+00,  7.064339512927990E-02, -1.061999350882030E-02,  6.720668818944427E-03, -1.536321823767700E-04,
2443950.500000000, A.D. 1979-Mar-18 00:00:00.0000,      50.185578,  9.774973146456259E-01,  1.850819286602597E+00,  6.984670015096853E-02, -1.078132096223851E-02,  6.423775987153917E-03, -1.650154704662765E-04,
2443955.500000000, A.D. 1979-Mar-23 00:00:00.0000,      50.185612,  9.232070606157142E-01,  1.882188083409437E+00,  6.899355265865888E-02, -1.093319935403621E-02,  6.123150875759279E-03, -1.762114345401103E-04,
2443960.500000000, A.D. 1979-Mar-28 00:00:00.0000,      50.185635,  8.681811890467811E-01,  1.912045178494076E+00,  6.808491515968658E-02, -1.107555754852482E-02,  5.819155618589813E-03, -1.872098030726252E-04,
2443965.500000000, A.D. 1979-Apr-02 00:00:00.0000,      50.185646,  8.124674432472262E-01,  1.940374625040009E+00,  6.712180025599684E-02, -1.120834143051184E-02,  5.512151570420210E-03, -1.980008121285984E-04,
2443970.500000000, A.D. 1979-Apr-07 00:00:00.0000,      50.185643,  7.561137951644371E-01,  1.967162279069158E+00,  6.610526807267975E-02, -1.133151360435971E-02,  5.202498356586295E-03, -2.085752183232087E-04,
2443975.500000000, A.D. 1979-Apr-12 00:00:00.0000,      50.185627,  6.991683626640103E-01,  1.992395788499499E+00,  6.503642362832350E-02, -1.144505303364051E-02,  4.890552961785691E-03, -2.189243091466507E-04,
2443980.500000000, A.D. 1979-Apr-17 00:00:00.0000,      50.185599,  6.416793287501239E-01,  2.016064577752834E+00,  6.391641416020501E-02, -1.154895462578795E-02,  4.576668861928706E-03, -2.290399107138164E-04,
2443985.500000000, A.D. 1979-Apr-22 00:00:00.0000,      50.185561,  5.836948629903189E-01,  2.038159828136410E+00,  6.274642641702394E-02, -1.164322876649386E-02,  4.261195202331740E-03, -2.389143930103138E-04,
2443990.500000000, A.D. 1979-Apr-27 00:00:00.0000,      50.185513,  5.252630453836569E-01,  2.058674454237240E+00,  6.152768393149887E-02, -1.172790080879590E-02,  3.944476025022877E-03, -2.485406727172808E-04,
2443995.500000000, A.D. 1979-May-02 00:00:00.0000,      50.185453,  4.664317928861901E-01,  2.077603076580535E+00,  6.026144428469341E-02, -1.180301052191500E-02,  3.626849547407052E-03, -2.579122137096710E-04,
2444000.500000000, A.D. 1979-May-07 00:00:00.0000,      50.185382,  4.072487887822268E-01,  2.094941990813541E+00,  5.894899637345290E-02, -1.186861150495269E-02,  3.308647494016033E-03, -2.670230253341812E-04,
2444005.500000000, A.D. 1979-May-12 00:00:00.0000,      50.185300,  3.477614150642987E-01,  2.110689133683493E+00,  5.759165769176028E-02, -1.192477057056420E-02,  2.990194482559834E-03, -2.758676585819457E-04,
2444010.500000000, A.D. 1979-May-17 00:00:00.0000,      50.185208,  2.880166879592145E-01,  2.124844046083225E+00,  5.619077163624335E-02, -1.197156710369495E-02,  2.671807465028942E-03, -2.844412002759587E-04,
2444015.500000000, A.D. 1979-May-22 00:00:00.0000,      50.185110,  2.280611967122579E-01,  2.137407833440790E+00,  5.474770484545517E-02, -1.200909240041982E-02,  2.353795224251629E-03, -2.927392653953146E-04,
2444020.500000000, A.D. 1979-May-27 00:00:00.0000,      50.185004,  1.679410457167601E-01,  2.148383123731147E+00,  5.326384458190870E-02, -1.203744899172097E-02,  2.036457926211398E-03, -3.007579876767491E-04,
2444025.500000000, A.D. 1979-Jun-01 00:00:00.0000,      50.184892,  1.077018000536629E-01,  2.157774023389163E+00,  5.174059616496985E-02, -1.205674995629049E-02,  1.720086728169126E-03, -3.084940087188359E-04,
2444030.500000000, A.D. 1979-Jun-06 00:00:00.0000,      50.184771,  4.738843448789935E-02,  2.165586071398932E+00,  5.017938046134746E-02, -1.206711822559124E-02,  1.404963440383916E-03, -3.159444658701867E-04,
2444035.500000000, A.D. 1979-Jun-11 00:00:00.0000,      50.184644, -1.295471405156163E-02,  2.171826191816134E+00,  4.858163143921069E-02, -1.206868588653822E-02,  1.091360237098134E-03, -3.231069788438544E-04,
